[{"OBJECT_NAME":"HJS-7A","OBJECT_ID":"2025-209A","EPOCH":"2026-03-09T22:03:51.136704","MEAN_MOTION":13.41451859,"ECCENTRICITY":4.957e-5,"INCLINATION":50.0012,"RA_OF_ASC_NODE":2.9877,"ARG_OF_PERICENTER":348.3634,"MEAN_ANOMALY":11.7232,"EPHEMERIS_TYPE":0,"CLASSIFICATION_TYPE":"U","NORAD_CAT_ID":65617,"ELEMENT_SET_NO":999,"REV_AT_EPOCH":2434,"BSTAR":0.00014251766,"MEAN_MOTION_DOT":-4.9e-7,"MEAN_MOTION_DDOT":0},{"OBJECT_NAME":"THORAD AGENA D DEB","OBJECT_ID":"1970-025HH","EPOCH":"2026-03-09T17:22:40.124928","MEAN_MOTION":13.49108879,"ECCENTRICITY":0.00393792,"INCLINATION":99.6215,"RA_OF_ASC_NODE":0.2504,"ARG_OF_PERICENTER":10.7606,"MEAN_ANOMALY":51.5853,"EPHEMERIS_TYPE":0,"CLASSIFICATION_TYPE":"U","NORAD_CAT_ID":4987,"ELEMENT_SET_NO":999,"REV_AT_EPOCH":74966,"BSTAR":0.0002203274,"MEAN_MOTION_DOT":9.6e-7,"MEAN_MOTION_DDOT":0}]
